NORAD_CAT_ID,OBJECT_NAME,OBJECT_TYPE,EPOCH,MEAN_MOTION,ECCENTRICITY,INCLINATION,RA_OF_ASC_NODE,ARG_OF_PERICENTER,MEAN_ANOMALY,BSTAR,MEAN_MOTION_DOT,MEAN_MOTION_DDOT,TLE_LINE0,TLE_LINE1,TLE_LINE2,SEMIMAJOR_AXIS,PERIOD,APOGEE,PERIGEE,DECAYED
49748.0,STARLINK-3248,PAYLOAD,2024-08-11 09:12:33,15.08851882,0.000139,53.2145,211.3439,94.5786,265.5365,0.00039488,6.004e-05,0.0,0 STARLINK-3248,1 49748U 21115AA  24224.38372474  .00006004  00000-0  39488-3 0  9999,2 49748  53.2145 211.3439 0001390  94.5786 265.5365 15.08851882149809,6917.844,95.437,540.671,538.747,0.0
49748.0,STARLINK-3248,PAYLOAD,2024-08-12 04:17:11,15.08844094,0.0001574,53.2158,207.7714,84.1098,276.0074,0.00019977,2.893e-05,0.0,0 STARLINK-3248,1 49748U 21115AA  24225.17861052  .00002893  00000-0  19977-3 0  9995,2 49748  53.2158 207.7714 0001574  84.1098 276.0074 15.08844094149927,6917.868,95.437,540.822,538.644,0.0
49748.0,STARLINK-3248,PAYLOAD,2024-08-12 09:03:21,15.08848824,0.0001577,53.2158,206.8815,84.1427,275.9745,0.00022817,3.346e-05,0.0,0 STARLINK-3248,1 49748U 21115AA  24225.37732775  .00003346  00000-0  22817-3 0  9997,2 49748  53.2158 206.8815 0001577  84.1427 275.9745 15.08848824148846,6917.853,95.437,540.809,538.627,0.0
49748.0,STARLINK-3248,PAYLOAD,2024-08-12 23:21:49,15.08849197,0.0001501,53.2155,204.2054,95.407,264.7094,0.00011701,1.575e-05,0.0,0 STARLINK-3248,1 49748U 21115AA  24225.97348481  .00001575  00000-0  11701-3 0  9992,2 49748  53.2155 204.2054 0001501  95.4070 264.7094 15.08849197148933,6917.852,95.437,540.756,538.679,0.0
49748.0,STARLINK-3248,PAYLOAD,2024-08-13 05:43:21,15.08851536,0.0001391,53.2152,203.0188,97.4998,262.6152,9.1631e-05,1.171e-05,0.0,0 STARLINK-3248,1 49748U 21115AA  24226.23843894  .00001171  00000-0  91631-4 0  9993,2 49748  53.2152 203.0188 0001391  97.4998 262.6152 15.08851536150084,6917.845,95.437,540.672,538.748,0.0
49748.0,STARLINK-3248,PAYLOAD,2024-08-13 07:18:44,15.08852567,0.0001409,53.2154,202.7213,97.9601,262.1551,0.00012631,1.724e-05,0.0,0 STARLINK-3248,1 49748U 21115AA  24226.30467834  .00001724  00000-0  12631-3 0  9993,2 49748  53.2154 202.7213 0001409  97.9601 262.1551 15.08852567148986,6917.842,95.437,540.682,538.732,0.0
49748.0,STARLINK-3248,PAYLOAD,2024-08-13 15:15:40,15.08842266,0.0001455,53.216,201.229,73.9207,286.1945,1.1187e-05,-1.1e-06,0.0,0 STARLINK-3248,1 49748U 21115AA  24226.63588409 -.00000110  00000-0  11187-4 0  9996,2 49748  53.2160 201.2290 0001455  73.9207 286.1945 15.08842266150148,6917.873,95.437,540.745,538.732,0.0
49748.0,STARLINK-3248,PAYLOAD,2024-08-14 03:58:46,15.0881879,0.0001574,53.2159,198.8526,81.462,278.655,-0.00029067,-4.908e-05,0.0,0 STARLINK-3248,1 49748U 21115AA  24227.16582166 -.00004908  00000-0 -29067-3 0  9994,2 49748  53.2159 198.8526 0001574  81.4620 278.6550 15.08818790150226,6917.945,95.439,540.899,538.721,0.0
49748.0,STARLINK-3248,PAYLOAD,2024-08-14 07:09:33,15.08820128,0.0001605,53.2162,198.2578,82.8416,277.2759,-0.0002567,-4.369e-05,0.0,0 STARLINK-3248,1 49748U 21115AA  24227.29830231 -.00004369  00000-0 -25670-3 0  9994,2 49748  53.2162 198.2578 0001605  82.8416 277.2759 15.08820128149136,6917.941,95.439,540.916,538.696,0.0
49748.0,STARLINK-3248,PAYLOAD,2024-08-14 15:06:29,15.08824373,0.0001481,53.2156,196.7715,84.9924,275.1237,-0.00014416,-2.581e-05,0.0,0 STARLINK-3248,1 49748U 21115AA  24227.62950306 -.00002581  00000-0 -14416-3 0  9997,2 49748  53.2156 196.7715 0001481  84.9924 275.1237 15.08824373150297,6917.928,95.439,540.818,538.769,0.0
49748.0,STARLINK-3248,PAYLOAD,2024-08-15 14:57:16,15.08840898,0.0001381,53.2155,192.314,89.0172,271.0978,0.00017917,2.565e-05,0.0,0 STARLINK-3248,1 49748U 21115AA  24228.62310367  .00002565  00000-0  17917-3 0  9994,2 49748  53.2155 192.3140 0001381  89.0172 271.0978 15.08840898149330,6917.878,95.437,540.698,538.787,0.0
49748.0,STARLINK-3248,PAYLOAD,2024-08-16 05:15:44,15.08862899,0.0001391,53.2143,189.6372,87.2897,272.8254,0.00085024,0.00013278,0.0,0 STARLINK-3248,1 49748U 21115AA  24229.21926224  .00013278  00000-0  85024-3 0  9992,2 49748  53.2143 189.6372 0001391  87.2897 272.8254 15.08862899150533,6917.81,95.436,540.638,538.713,0.0
49748.0,STARLINK-3248,PAYLOAD,2024-08-17 03:31:07,15.08853952,0.0001526,53.2138,185.4718,89.421,270.6957,0.00021701,3.169e-05,0.0,0 STARLINK-3248,1 49748U 21115AA  24230.14661629  .00003169  00000-0  21701-3 0  9991,2 49748  53.2138 185.4718 0001526  89.4210 270.6957 15.08853952150679,6917.838,95.437,540.758,538.647,0.0
49748.0,STARLINK-3248,PAYLOAD,2024-08-17 21:00:22,15.08846086,0.0001406,53.2138,182.2024,95.7652,264.35,7.8621e-05,9.64e-06,0.0,0 STARLINK-3248,1 49748U 21115AA  24230.87525676  .00000964  00000-0  78621-4 0  9996,2 49748  53.2138 182.2024 0001406  95.7652 264.3500 15.08846086150787,6917.862,95.437,540.699,538.754,0.0
49748.0,STARLINK-3248,PAYLOAD,2024-08-18 01:46:31,15.08844685,0.0001314,53.2147,181.3088,85.0334,275.0809,0.00012927,1.77e-05,0.0,0 STARLINK-3248,1 49748U 21115AA  24231.07397778  .00001770  00000-0  12927-3 0  9991,2 49748  53.2147 181.3088 0001314  85.0334 275.0809 15.08844685149708,6917.866,95.437,540.64,538.822,0.0
49748.0,STARLINK-3248,PAYLOAD,2024-08-18 20:51:09,15.08843377,0.0001418,53.2164,177.743,74.662,285.4529,7.7732e-06,-1.64e-06,0.0,0 STARLINK-3248,1 49748U 21115AA  24231.86886097 -.00000164  00000-0  77732-5 0  9999,2 49748  53.2164 177.7430 0001418  74.6620 285.4529 15.08843377150932,6917.87,95.437,540.716,538.754,0.0
49748.0,STARLINK-3248,PAYLOAD,2024-08-19 03:12:42,15.08844202,0.0001414,53.2167,176.5536,86.6962,273.4192,0.00016503,2.34e-05,0.0,0 STARLINK-3248,1 49748U 21115AA  24232.13382041  .00002340  00000-0  16503-3 0  9994,2 49748  53.2167 176.5536 0001414  86.6962 273.4192 15.08844202149868,6917.868,95.437,540.711,538.754,0.0
49748.0,STARLINK-3248,PAYLOAD,2024-08-20 03:03:29,15.08837491,0.0001487,53.2173,172.0956,91.5874,268.5288,0.00010271,1.347e-05,0.0,0 STARLINK-3248,1 49748U 21115AA  24233.12742519  .00001347  00000-0  10271-3 0  9996,2 49748  53.2173 172.0956 0001487  91.5874 268.5288 15.08837491151124,6917.888,95.438,540.782,538.724,0.0
49748.0,STARLINK-3248,PAYLOAD,2024-08-21 04:29:39,15.08851325,0.000139,53.2171,167.338,95.4041,264.7109,0.00023385,3.437e-05,0.0,0 STARLINK-3248,1 49748U 21115AA  24234.18725803  .00003437  00000-0  23385-3 0  9992,2 49748  53.2171 167.3380 0001390  95.4041 264.7109 15.08851325151281,6917.846,95.437,540.672,538.749,0.0
